start=new Date('2022-03-18T00:00:00.000Z').valueOf();
sats=[{"TLE_LINE2":"2 51975  53.2174  98.4880 0001046  87.9780 183.3371 15.80120908  1526","LAUNCH_DATE":"2022-03-09","TIME_SYSTEM":"UTC","RCS_SIZE":null,"MEAN_MOTION":"15.80120908","INCLINATION":"53.2174","ELEMENT_SET_NO":"999","TLE_LINE1":"1 51975U 22025V   22076.91667824 -.00874464  00000-0 -50696-2 0  9991","REF_FRAME":"TEME","DECAY_DATE":null,"OBJECT_ID":"2022-025V","MEAN_ELEMENT_THEORY":"SGP4","CLASSIFICATION_TYPE":"U","OBJECT_TYPE":"PAYLOAD","CENTER_NAME":"EARTH","REV_AT_EPOCH":"152","MEAN_MOTION_DOT":"-0.00874464","EPOCH":"2022-03-17T22:00:00.999936","GP_ID":"198995142","SEMIMAJOR_AXIS":"6708.235","NORAD_CAT_ID":"51975","APOAPSIS":"330.802","PERIOD":"91.132","EPHEMERIS_TYPE":"0","MEAN_MOTION_DDOT":"0.0000000000000","OBJECT_NAME":"STARLINK-3674","SITE":"AFETR","ECCENTRICITY":"0.00010460","BSTAR":"-0.00506960000000","PERIAPSIS":"329.399","ARG_OF_PERICENTER":"87.9780","COUNTRY_CODE":"US","RA_OF_ASC_NODE":"98.4880","FILE":"3363151","MEAN_ANOMALY":"183.3371"},{"EPHEMERIS_TYPE":"0","PERIOD":"91.133","APOAPSIS":"330.861","NORAD_CAT_ID":"51976","SEMIMAJOR_AXIS":"6708.289","GP_ID":"198995702","EPOCH":"2022-03-17T22:00:00.999936","MEAN_MOTION_DOT":"-0.00874570","REV_AT_EPOCH":"152","MEAN_ANOMALY":"193.1978","FILE":"3363151","COUNTRY_CODE":"US","ARG_OF_PERICENTER":"77.7291","RA_OF_ASC_NODE":"98.4892","PERIAPSIS":"329.447","BSTAR":"-0.00507470000000","ECCENTRICITY":"0.00010540","SITE":"AFETR","OBJECT_NAME":"STARLINK-3663","MEAN_MOTION_DDOT":"0.0000000000000","REF_FRAME":"TEME","TLE_LINE1":"1 51976U 22025W   22076.91667824 -.00874570  00000-0 -50747-2 0  9997","ELEMENT_SET_NO":"999","INCLINATION":"53.2174","MEAN_MOTION":"15.80101978","RCS_SIZE":null,"TIME_SYSTEM":"UTC","LAUNCH_DATE":"2022-03-09","TLE_LINE2":"2 51976  53.2174  98.4892 0001054  77.7291 193.1978 15.80101978  1521","CENTER_NAME":"EARTH","OBJECT_TYPE":"PAYLOAD","CLASSIFICATION_TYPE":"U","MEAN_ELEMENT_THEORY":"SGP4","OBJECT_ID":"2022-025W","DECAY_DATE":null},{"ELEMENT_SET_NO":"999","REF_FRAME":"TEME","TLE_LINE1":"1 51977U 22025X   22076.91667824 -.00455611  00000-0 -18701-2 0  9993","INCLINATION":"53.2175","MEAN_MOTION":"15.86354892","RCS_SIZE":null,"TIME_SYSTEM":"UTC","TLE_LINE2":"2 51977  53.2175  98.3810 0001006 100.0255 231.8665 15.86354892  1523","LAUNCH_DATE":"2022-03-09","CENTER_NAME":"EARTH","OBJECT_TYPE":"PAYLOAD","MEAN_ELEMENT_THEORY":"SGP4","CLASSIFICATION_TYPE":"U","DECAY_DATE":null,"OBJECT_ID":"2022-025X","EPHEMERIS_TYPE":"0","PERIOD":"90.774","APOAPSIS":"313.187","SEMIMAJOR_AXIS":"6690.649","NORAD_CAT_ID":"51977","GP_ID":"198995254","MEAN_MOTION_DOT":"-0.00455611","EPOCH":"2022-03-17T22:00:00.999936","REV_AT_EPOCH":"152","FILE":"3363151","MEAN_ANOMALY":"231.8665","RA_OF_ASC_NODE":"98.3810","COUNTRY_CODE":"US","ARG_OF_PERICENTER":"100.0255","BSTAR":"-0.00187010000000","ECCENTRICITY":"0.00010060","PERIAPSIS":"311.841","SITE":"AFETR","MEAN_MOTION_DDOT":"0.0000000000000","OBJECT_NAME":"STARLINK-3660"},{"CENTER_NAME":"EARTH","OBJECT_TYPE":"PAYLOAD","CLASSIFICATION_TYPE":"U","MEAN_ELEMENT_THEORY":"SGP4","DECAY_DATE":null,"OBJECT_ID":"2022-025Y","MEAN_MOTION":"15.80210564","INCLINATION":"53.2174","REF_FRAME":"TEME","TLE_LINE1":"1 51978U 22025Y   22076.91667824 -.00874613  00000-0 -50496-2 0  9998","ELEMENT_SET_NO":"999","TIME_SYSTEM":"UTC","RCS_SIZE":null,"LAUNCH_DATE":"2022-03-09","TLE_LINE2":"2 51978  53.2174  98.4857 0001042  86.7585 185.9217 15.80210564  1524","COUNTRY_CODE":"US","ARG_OF_PERICENTER":"86.7585","RA_OF_ASC_NODE":"98.4857","MEAN_ANOMALY":"185.9217","FILE":"3363151","PERIAPSIS":"329.148","BSTAR":"-0.00504960000000","ECCENTRICITY":"0.00010420","SITE":"AFETR","OBJECT_NAME":"STARLINK-3666","MEAN_MOTION_DDOT":"0.0000000000000","PERIOD":"91.127","EPHEMERIS_TYPE":"0","NORAD_CAT_ID":"51978","SEMIMAJOR_AXIS":"6707.982","APOAPSIS":"330.546","EPOCH":"2022-03-17T22:00:00.999936","MEAN_MOTION_DOT":"-0.00874613","GP_ID":"198995814","REV_AT_EPOCH":"152"},{"PERIOD":"91.135","EPHEMERIS_TYPE":"0","SEMIMAJOR_AXIS":"6708.391","NORAD_CAT_ID":"51979","APOAPSIS":"330.962","EPOCH":"2022-03-17T22:00:00.999936","MEAN_MOTION_DOT":"-0.00874467","GP_ID":"198995479","REV_AT_EPOCH":"152","COUNTRY_CODE":"US","ARG_OF_PERICENTER":"86.1811","RA_OF_ASC_NODE":"98.4906","MEAN_ANOMALY":"183.9410","FILE":"3363151","PERIAPSIS":"329.550","ECCENTRICITY":"0.00010520","BSTAR":"-0.00508250000000","SITE":"AFETR","OBJECT_NAME":"STARLINK-3656","MEAN_MOTION_DDOT":"0.0000000000000","MEAN_MOTION":"15.80065920","INCLINATION":"53.2174","TLE_LINE1":"1 51979U 22025Z   22076.91667824 -.00874467  00000-0 -50825-2 0  9992","REF_FRAME":"TEME","ELEMENT_SET_NO":"999","TIME_SYSTEM":"UTC","RCS_SIZE":null,"LAUNCH_DATE":"2022-03-09","TLE_LINE2":"2 51979  53.2174  98.4906 0001052  86.1811 183.9410 15.80065920  1524","CENTER_NAME":"EARTH","OBJECT_TYPE":"PAYLOAD","CLASSIFICATION_TYPE":"U","MEAN_ELEMENT_THEORY":"SGP4","DECAY_DATE":null,"OBJECT_ID":"2022-025Z"},{"ARG_OF_PERICENTER":"94.0912","COUNTRY_CODE":"US","RA_OF_ASC_NODE":"98.4841","FILE":"3363151","MEAN_ANOMALY":"179.3409","BSTAR":"-0.00504040000000","ECCENTRICITY":"0.00010570","PERIAPSIS":"329.027","SITE":"AFETR","MEAN_MOTION_DDOT":"0.0000000000000","OBJECT_NAME":"STARLINK-3649","PERIOD":"91.125","EPHEMERIS_TYPE":"0","SEMIMAJOR_AXIS":"6707.871","NORAD_CAT_ID":"51980","APOAPSIS":"330.445","MEAN_MOTION_DOT":"-0.00874609","EPOCH":"2022-03-17T22:00:00.999936","GP_ID":"198995367","REV_AT_EPOCH":"152","CENTER_NAME":"EARTH","OBJECT_TYPE":"PAYLOAD","MEAN_ELEMENT_THEORY":"SGP4","CLASSIFICATION_TYPE":"U","OBJECT_ID":"2022-025AA","DECAY_DATE":null,"INCLINATION":"53.2174","MEAN_MOTION":"15.80249758","ELEMENT_SET_NO":"999","TLE_LINE1":"1 51980U 22025AA  22076.91667824 -.00874609  00000-0 -50404-2 0  9995","REF_FRAME":"TEME","TIME_SYSTEM":"UTC","RCS_SIZE":null,"TLE_LINE2":"2 51980  53.2174  98.4841 0001057  94.0912 179.3409 15.80249758  1529","LAUNCH_DATE":"2022-03-09"},{"SITE":"AFETR","MEAN_MOTION_DDOT":"0.0000000000000","OBJECT_NAME":"STARLINK-3635","RA_OF_ASC_NODE":"98.4876","COUNTRY_CODE":"US","ARG_OF_PERICENTER":"81.6172","FILE":"3363151","MEAN_ANOMALY":"189.9796","BSTAR":"-0.00506370000000","ECCENTRICITY":"0.00010430","PERIAPSIS":"329.324","MEAN_MOTION_DOT":"-0.00874530","EPOCH":"2022-03-17T22:00:00.999936","GP_ID":"198995591","REV_AT_EPOCH":"152","PERIOD":"91.131","EPHEMERIS_TYPE":"0","NORAD_CAT_ID":"51981","SEMIMAJOR_AXIS":"6708.159","APOAPSIS":"330.724","MEAN_ELEMENT_THEORY":"SGP4","CLASSIFICATION_TYPE":"U","OBJECT_ID":"2022-025AB","DECAY_DATE":null,"CENTER_NAME":"EARTH","OBJECT_TYPE":"PAYLOAD","TIME_SYSTEM":"UTC","RCS_SIZE":null,"TLE_LINE2":"2 51981  53.2174  98.4876 0001043  81.6172 189.9796 15.80147951  1521","LAUNCH_DATE":"2022-03-09","INCLINATION":"53.2174","MEAN_MOTION":"15.80147951","ELEMENT_SET_NO":"999","REF_FRAME":"TEME","TLE_LINE1":"1 51981U 22025AB  22076.91667824 -.00874530  00000-0 -50637-2 0  9997"},{"CENTER_NAME":"EARTH","OBJECT_TYPE":"PAYLOAD","MEAN_ELEMENT_THEORY":"SGP4","CLASSIFICATION_TYPE":"U","OBJECT_ID":"2022-025AC","DECAY_DATE":null,"ELEMENT_SET_NO":"999","REF_FRAME":"TEME","TLE_LINE1":"1 51982U 22025AC  22076.91667824 -.00874600  00000-0 -50352-2 0  9990","MEAN_MOTION":"15.80271898","INCLINATION":"53.2174","RCS_SIZE":null,"TIME_SYSTEM":"UTC","TLE_LINE2":"2 51982  53.2174  98.4835 0001049  85.1450 188.6274 15.80271898  1526","LAUNCH_DATE":"2022-03-09","FILE":"3363151","MEAN_ANOMALY":"188.6274","COUNTRY_CODE":"US","ARG_OF_PERICENTER":"85.1450","RA_OF_ASC_NODE":"98.4835","ECCENTRICITY":"0.00010490","BSTAR":"-0.00503520000000","PERIAPSIS":"328.969","SITE":"AFETR","MEAN_MOTION_DDOT":"0.0000000000000","OBJECT_NAME":"STARLINK-3650","EPHEMERIS_TYPE":"0","PERIOD":"91.124","APOAPSIS":"330.377","SEMIMAJOR_AXIS":"6707.808","NORAD_CAT_ID":"51982","GP_ID":"198995927","MEAN_MOTION_DOT":"-0.00874600","EPOCH":"2022-03-17T22:00:00.999936","REV_AT_EPOCH":"152"},{"ELEMENT_SET_NO":"999","TLE_LINE1":"1 51983U 22025AD  22076.91667824 -.00874607  00000-0 -50546-2 0  9993","REF_FRAME":"TEME","MEAN_MOTION":"15.80188784","INCLINATION":"53.2174","TLE_LINE2":"2 51983  53.2174  98.4861 0001066  74.7095 197.6225 15.80188784  1521","LAUNCH_DATE":"2022-03-09","RCS_SIZE":null,"TIME_SYSTEM":"UTC","OBJECT_TYPE":"PAYLOAD","CENTER_NAME":"EARTH","OBJECT_ID":"2022-025AD","DECAY_DATE":null,"MEAN_ELEMENT_THEORY":"SGP4","CLASSIFICATION_TYPE":"U","APOAPSIS":"330.623","NORAD_CAT_ID":"51983","SEMIMAJOR_AXIS":"6708.043","EPHEMERIS_TYPE":"0","PERIOD":"91.128","REV_AT_EPOCH":"152","GP_ID":"198995143","MEAN_MOTION_DOT":"-0.00874607","EPOCH":"2022-03-17T22:00:00.999936","ECCENTRICITY":"0.00010660","BSTAR":"-0.00505460000000","PERIAPSIS":"329.193","FILE":"3363151","MEAN_ANOMALY":"197.6225","ARG_OF_PERICENTER":"74.7095","COUNTRY_CODE":"US","RA_OF_ASC_NODE":"98.4861","MEAN_MOTION_DDOT":"0.0000000000000","OBJECT_NAME":"STARLINK-3655","SITE":"AFETR"},{"RCS_SIZE":null,"TIME_SYSTEM":"UTC","LAUNCH_DATE":"2022-03-09","TLE_LINE2":"2 51984  53.2174  98.4812 0001039  80.6634 194.2265 15.80330897  1524","REF_FRAME":"TEME","TLE_LINE1":"1 51984U 22025AE  22076.91667824 -.00874648  00000-0 -50218-2 0  9995","ELEMENT_SET_NO":"999","INCLINATION":"53.2174","MEAN_MOTION":"15.80330897","CLASSIFICATION_TYPE":"U","MEAN_ELEMENT_THEORY":"SGP4","OBJECT_ID":"2022-025AE","DECAY_DATE":null,"CENTER_NAME":"EARTH","OBJECT_TYPE":"PAYLOAD","GP_ID":"198995703","EPOCH":"2022-03-17T22:00:00.999936","MEAN_MOTION_DOT":"-0.00874648","REV_AT_EPOCH":"152","EPHEMERIS_TYPE":"0","PERIOD":"91.120","APOAPSIS":"330.203","NORAD_CAT_ID":"51984","SEMIMAJOR_AXIS":"6707.641","SITE":"AFETR","OBJECT_NAME":"STARLINK-3664","MEAN_MOTION_DDOT":"0.0000000000000","MEAN_ANOMALY":"194.2265","FILE":"3363151","ARG_OF_PERICENTER":"80.6634","COUNTRY_CODE":"US","RA_OF_ASC_NODE":"98.4812","PERIAPSIS":"328.809","ECCENTRICITY":"0.00010390","BSTAR":"-0.00502180000000"}];
